{"fetched_at":"2026-03-27T07:04:08Z","count":10282,"tles":[{"name":"SL-16 R/B","line1":"1 24298U 96051B   26085.38403476  .00000085  00000+0  72571-4 0  9990","line2":"2 24298  70.7589 139.9054 0013699 121.3103 238.9360 14.12420290524000","category":"Other"},{"name":"DELTA 2 R/B","line1":"1 25876U 99041E   26085.43168604  .00000714  00000+0  15446-3 0  9998","line2":"2 25876  51.7606 234.4010 0502635  37.8096 325.7055 14.11874235365392","category":"Other"},{"name":"SL-16 R/B","line1":"1 25400U 98043G   26085.36028500  .00000078  00000+0  51813-4 0  9996","line2":"2 25400  98.8282  38.8447 0009328 332.1155  27.9523 14.26053525441365","category":"Other"},{"name":"ORBVIEW 2 (SEASTAR)","line1":"1 24883U 97037A   26085.42512119  .00000294  00000+0  11859-3 0  9998","line2":"2 24883  98.8597 250.1829 0002529  36.5055 323.6301 14.35506288510873","category":"Other"},{"name":"ARIANE 40 R/B","line1":"1 22830U 93061H   26085.10870029  .00000215  00000+0  94599-4 0  9999","line2":"2 22830  98.4886 153.6701 0009865 231.0065 129.0241 14.32869473696454","category":"Other"},{"name":"SL-16 R/B","line1":"1 25407U 98045B   26085.45444066 -.00000239  00000+0 -96629-4 0  9999","line2":"2 25407  71.0108 146.3209 0007858 341.8029  18.2812 14.16194784429470","category":"Other"},{"name":"ARIANE 40+ R/B","line1":"1 23561U 95021B   26085.48594631  .00000288  00000+0  10577-3 0  9995","line2":"2 23561  98.4468 156.7386 0007978  93.1506 277.5028 14.39784191621668","category":"Other"},{"name":"SL-16 R/B","line1":"1 23705U 95058B   26085.45174508 -.00000226  00000+0 -91422-4 0  9992","line2":"2 23705  71.0209 145.0662 0010116  94.7416 265.4862 14.15500005570222","category":"Other"},{"name":"OKEAN-O","line1":"1 25860U 99039A   26085.41498115  .00000682  00000+0  96279-4 0  9997","line2":"2 25860  97.9408 145.1336 0000890  87.4864 272.6450 14.80361377436860","category":"Other"},{"name":"SL-16 R/B","line1":"1 25861U 99039B   26085.44665522  .00000549  00000+0  76356-4 0  9995","line2":"2 25861  97.9931 144.5154 0014367 197.9976 162.0729 14.81753539439341","category":"Other"},{"name":"CZ-4B R/B","line1":"1 25732U 99025C   26085.37541691  .00000053  00000+0  46635-4 0  9996","line2":"2 25732  98.6593 129.2593 0036057 297.6687  72.5234 14.18268532390531","category":"Other"},{"name":"COSMOS 2278","line1":"1 23087U 94023A   26085.42992847 -.00000250  00000+0 -10583-3 0  9992","line2":"2 23087  71.0524 140.0771 0009067 346.7055  13.3827 14.14376373647171","category":"Other"},{"name":"SL-16 R/B","line1":"1 23088U 94023B   26085.32751153  .00000327  00000+0  19346-3 0  9994","line2":"2 23088  71.0010  35.9436 0005447 269.8718  90.1780 14.15013414648448","category":"Other"},{"name":"SL-16 R/B","line1":"1 22803U 93059B   26085.41638536 -.00000113  00000+0 -32064-4 0  9993","line2":"2 22803  70.9924 335.8559 0017538 192.3326 167.7371 14.17235394681901","category":"Other"},{"name":"ISS (ZARYA)","line1":"1 25544U 98067A   26085.42232068  .00012562  00000+0  23936-3 0  9999","line2":"2 25544  51.6341 349.6418 0006244 234.7318 125.3087 15.48556416558921","category":"ISS"},{"name":"SL-16 R/B","line1":"1 23343U 94074B   26085.35467024  .00000461  00000+0  68371-4 0  9990","line2":"2 23343  97.7085 115.4960 0007116 155.5629 215.2884 14.79426138689713","category":"Other"},{"name":"SL-16 R/B","line1":"1 23405U 94077B   26085.09063158  .00000045  00000+0  47698-4 0  9990","line2":"2 23405  70.9839 317.9867 0002112 198.2700 161.8347 14.15569000618552","category":"Other"}]}